{"type": "FeatureCollection", "features": [{"type": "Feature", "properties": {"norad_id": 25730, "name": "FENGYUN 1C", "group": "fengyun-1c-debris", "lat": -71.18324607548657, "lon": -148.30823335823413, "alt_km": 819.1093260944908, "timestamp": "2025-12-18T21:31:51.272427+00:00", "meta": {"OBJECT_NAME": "FENGYUN 1C", "OBJECT_ID": "1999-025A", "EPOCH": "2025-12-18T03:30:28.856448", "MEAN_MOTION": 14.26078783, "ECCENTRICITY": 0.00104818, "INCLINATION": 98.8837, "RA_OF_ASC_NODE": 58.2529, "ARG_OF_PERICENTER": 53.7326, "MEAN_ANOMALY": 306.4821, "EPHEMERIS_TYPE": 0, "CLASSIFICATION_TYPE": "U", "NORAD_CAT_ID": 25730, "ELEMENT_SET_NO": 999, "REV_AT_EPOCH": 37214, "BSTAR": 0.00088254261, "MEAN_MOTION_DOT": 2.065e-05, "MEAN_MOTION_DDOT": 0}, "tle": {"line1": "1 25730U 99025A   25352.14616732  .00002065  00000+0  88254-3 0  9991", "line2": "2 25730  98.8837  58.2529 0010481  53.7326 306.4821 14.26078783372140"}}, "geometry": {"type": "Point", "coordinates": [-148.30823335823413, -71.18324607548657]}}, {"type": "Feature", "properties": {"norad_id": 29733, "name": "FENGYUN 1C DEB", "group": "fengyun-1c-debris", "lat": -42.88828250479039, "lon": -140.6555943063119, "alt_km": 919.9308846653321, "timestamp": "2025-12-18T21:31:51.272448+00:00", "meta": {"OBJECT_NAME": "FENGYUN 1C DEB", "OBJECT_ID": "1999-025X", "EPOCH": "2025-12-18T02:02:23.762400", "MEAN_MOTION": 12.96479896, "ECCENTRICITY": 0.05697751, "INCLINATION": 99.2244, "RA_OF_ASC_NODE": 47.3369, "ARG_OF_PERICENTER": 189.7186, "MEAN_ANOMALY": 201.5297, "EPHEMERIS_TYPE": 0, "CLASSIFICATION_TYPE": "U", "NORAD_CAT_ID": 29733, "ELEMENT_SET_NO": 999, "REV_AT_EPOCH": 89189, "BSTAR": 0.0018459009, "MEAN_MOTION_DOT": 1.081e-05, "MEAN_MOTION_DDOT": 0}, "tle": {"line1": "1 29733U 99025X   25352.08499725  .00001081  00000+0  18459-2 0  9998", "line2": "2 29733  99.2244  47.3369 0569775 189.7186 201.5297 12.96479896891899"}}, "geometry": {"type": "Point", "coordinates": [-140.6555943063119, -42.88828250479039]}}, {"type": "Feature", "properties": {"norad_id": 29734, "name": "FENGYUN 1C DEB", "group": "fengyun-1c-debris", "lat": -77.1852131259548, "lon": -32.96242211005241, "alt_km": 1183.8854117007786, "timestamp": "2025-12-18T21:31:51.272461+00:00", "meta": {"OBJECT_NAME": "FENGYUN 1C DEB", "OBJECT_ID": "1999-025Y", "EPOCH": "2025-12-17T18:09:33.427296", "MEAN_MOTION": 12.91336738, "ECCENTRICITY": 0.06155485, "INCLINATION": 99.1703, "RA_OF_ASC_NODE": 280.8406, "ARG_OF_PERICENTER": 0.3931, "MEAN_ANOMALY": 26.1713, "EPHEMERIS_TYPE": 0, "CLASSIFICATION_TYPE": "U", "NORAD_CAT_ID": 29734, "ELEMENT_SET_NO": 999, "REV_AT_EPOCH": 88613, "BSTAR": 0.0035781496, "MEAN_MOTION_DOT": 2.196e-05, "MEAN_MOTION_DDOT": 0}, "tle": {"line1": "1 29734U 99025Y   25351.75663689  .00002196  00000+0  35781-2 0  9999", "line2": "2 29734  99.1703 280.8406 0615548   0.3931  26.1713 12.91336738886138"}}, "geometry": {"type": "Point", "coordinates": [-32.96242211005241, -77.1852131259548]}}, {"type": "Feature", "properties": {"norad_id": 29735, "name": "FENGYUN 1C DEB", "group": "fengyun-1c-debris", "lat": -28.535527182913228, "lon": 81.66417955091465, "alt_km": 981.3540072617734, "timestamp": "2025-12-18T21:31:51.272473+00:00", "meta": {"OBJECT_NAME": "FENGYUN 1C DEB", "OBJECT_ID": "1999-025Z", "EPOCH": "2025-12-18T05:24:57.736800", "MEAN_MOTION": 12.75056179, "ECCENTRICITY": 0.06974661, "INCLINATION": 99.3913, "RA_OF_ASC_NODE": 266.2675, "ARG_OF_PERICENTER": 163.0633, "MEAN_ANOMALY": 199.5072, "EPHEMERIS_TYPE": 0, "CLASSIFICATION_TYPE": "U", "NORAD_CAT_ID": 29735, "ELEMENT_SET_NO": 999, "REV_AT_EPOCH": 87485, "BSTAR": 0.001405753, "MEAN_MOTION_DOT": 7.88e-06, "MEAN_MOTION_DDOT": 0}, "tle": {"line1": "1 29735U 99025Z   25352.22566825  .00000788  00000+0  14058-2 0  9996", "line2": "2 29735  99.3913 266.2675 0697466 163.0633 199.5072 12.75056179874854"}}, "geometry": {"type": "Point", "coordinates": [81.66417955091465, -28.535527182913228]}}, {"type": "Feature", "properties": {"norad_id": 29736, "name": "FENGYUN 1C DEB", "group": "fengyun-1c-debris", "lat": -49.958166555171275, "lon": -177.51290596296877, "alt_km": 1724.561870994161, "timestamp": "2025-12-18T21:31:51.272484+00:00", "meta": {"OBJECT_NAME": "FENGYUN 1C DEB", "OBJECT_ID": "1999-025AA", "EPOCH": "2025-12-16T22:58:07.968288", "MEAN_MOTION": 12.57499187, "ECCENTRICITY": 0.0724992, "INCLINATION": 99.4033, "RA_OF_ASC_NODE": 169.547, "ARG_OF_PERICENTER": 189.6493, "MEAN_ANOMALY": 333.7972, "EPHEMERIS_TYPE": 0, "CLASSIFICATION_TYPE": "U", "NORAD_CAT_ID": 29736, "ELEMENT_SET_NO": 999, "REV_AT_EPOCH": 86597, "BSTAR": 0.0018646537, "MEAN_MOTION_DOT": 8.18e-06, "MEAN_MOTION_DDOT": 0}, "tle": {"line1": "1 29736U 99025AA  25350.95703667  .00000818  00000+0  18647-2 0  9994", "line2": "2 29736  99.4033 169.5470 0724992 189.6493 333.7972 12.57499187865974"}}, "geometry": {"type": "Point", "coordinates": [-177.51290596296877, -49.958166555171275]}}, {"type": "Feature", "properties": {"norad_id": 29737, "name": "FENGYUN 1C DEB", "group": "fengyun-1c-debris", "lat": -43.87889596285964, "lon": 117.60124214551901, "alt_km": 1457.919498418286, "timestamp": "2025-12-18T21:31:51.272495+00:00", "meta": {"OBJECT_NAME": "FENGYUN 1C DEB", "OBJECT_ID": "1999-025AB", "EPOCH": "2025-12-17T10:54:30.474432", "MEAN_MOTION": 12.65663849, "ECCENTRICITY": 0.06951002, "INCLINATION": 99.5803, "RA_OF_ASC_NODE": 305.7424, "ARG_OF_PERICENTER": 128.2538, "MEAN_ANOMALY": 358.4647, "EPHEMERIS_TYPE": 0, "CLASSIFICATION_TYPE": "U", "NORAD_CAT_ID": 29737, "ELEMENT_SET_NO": 999, "REV_AT_EPOCH": 86928, "BSTAR": 0.0025567737, "MEAN_MOTION_DOT": 1.214e-05, "MEAN_MOTION_DDOT": 0}, "tle": {"line1": "1 29737U 99025AB  25351.45451938  .00001214  00000+0  25568-2 0  9993", "line2": "2 29737  99.5803 305.7424 0695100 128.2538 358.4647 12.65663849869289"}}, "geometry": {"type": "Point", "coordinates": [117.60124214551901, -43.87889596285964]}}, {"type": "Feature", "properties": {"norad_id": 29738, "name": "FENGYUN 1C DEB", "group": "fengyun-1c-debris", "lat": 43.34084092949262, "lon": -12.293175229354304, "alt_km": 1948.843573075107, "timestamp": "2025-12-18T21:31:51.272506+00:00", "meta": {"OBJECT_NAME": "FENGYUN 1C DEB", "OBJECT_ID": "1999-025AC", "EPOCH": "2025-12-17T10:27:29.589696", "MEAN_MOTION": 12.61055376, "ECCENTRICITY": 0.08648218, "INCLINATION": 99.4089, "RA_OF_ASC_NODE": 157.5101, "ARG_OF_PERICENTER": 284.3153, "MEAN_ANOMALY": 66.3508, "EPHEMERIS_TYPE": 0, "CLASSIFICATION_TYPE": "U", "NORAD_CAT_ID": 29738, "ELEMENT_SET_NO": 999, "REV_AT_EPOCH": 86276, "BSTAR": 0.0023643063, "MEAN_MOTION_DOT": 1.766e-05, "MEAN_MOTION_DDOT": 0}, "tle": {"line1": "1 29738U 99025AC  25351.43575914  .00001766  00000+0  23643-2 0  9997", "line2": "2 29738  99.4089 157.5101 0864821 284.3153  66.3508 12.61055376862768"}}, "geometry": {"type": "Point", "coordinates": [-12.293175229354304, 43.34084092949262]}}, {"type": "Feature", "properties": {"norad_id": 29740, "name": "FENGYUN 1C DEB", "group": "fengyun-1c-debris", "lat": 50.54726356800118, "lon": -168.45666976844794, "alt_km": 2149.9966380298183, "timestamp": "2025-12-18T21:31:51.272517+00:00", "meta": {"OBJECT_NAME": "FENGYUN 1C DEB", "OBJECT_ID": "1999-025AE", "EPOCH": "2025-12-18T01:19:14.913408", "MEAN_MOTION": 12.08330229, "ECCENTRICITY": 0.09744577, "INCLINATION": 99.0432, "RA_OF_ASC_NODE": 202.0987, "ARG_OF_PERICENTER": 188.0877, "MEAN_ANOMALY": 170.3412, "EPHEMERIS_TYPE": 0, "CLASSIFICATION_TYPE": "U", "NORAD_CAT_ID": 29740, "ELEMENT_SET_NO": 999, "REV_AT_EPOCH": 82999, "BSTAR": -0.00095493284, "MEAN_MOTION_DOT": -3.94e-06, "MEAN_MOTION_DDOT": 0}, "tle": {"line1": "1 29740U 99025AE  25352.05503372 -.00000394  00000+0 -95493-3 0  9999", "line2": "2 29740  99.0432 202.0987 0974457 188.0877 170.3412 12.08330229829999"}}, "geometry": {"type": "Point", "coordinates": [-168.45666976844794, 50.54726356800118]}}, {"type": "Feature", "properties": {"norad_id": 29741, "name": "FENGYUN 1C DEB", "group": "fengyun-1c-debris", "lat": 39.67203718025117, "lon": 53.18415717201311, "alt_km": 1557.4493370233286, "timestamp": "2025-12-18T21:31:51.272528+00:00", "meta": {"OBJECT_NAME": "FENGYUN 1C DEB", "OBJECT_ID": "1999-025AF", "EPOCH": "2025-12-18T05:25:56.553600", "MEAN_MOTION": 12.0095798, "ECCENTRICITY": 0.10253495, "INCLINATION": 99.1742, "RA_OF_ASC_NODE": 225.002, "ARG_OF_PERICENTER": 53.1395, "MEAN_ANOMALY": 56.0702, "EPHEMERIS_TYPE": 0, "CLASSIFICATION_TYPE": "U", "NORAD_CAT_ID": 29741, "ELEMENT_SET_NO": 999, "REV_AT_EPOCH": 52249, "BSTAR": 0.0053910814, "MEAN_MOTION_DOT": 2.098e-05, "MEAN_MOTION_DDOT": 0}, "tle": {"line1": "1 29741U 99025AF  25352.22634900  .00002098  00000+0  53911-2 0  9990", "line2": "2 29741  99.1742 225.0020 1025349  53.1395  56.0702 12.00957980522491"}}, "geometry": {"type": "Point", "coordinates": [53.18415717201311, 39.67203718025117]}}, {"type": "Feature", "properties": {"norad_id": 29748, "name": "FENGYUN 1C DEB", "group": "fengyun-1c-debris", "lat": 4.723677090874199, "lon": 103.04986512459278, "alt_km": 2418.9329737619855, "timestamp": "2025-12-18T21:31:51.272552+00:00", "meta": {"OBJECT_NAME": "FENGYUN 1C DEB", "OBJECT_ID": "1999-025AN", "EPOCH": "2025-12-17T02:11:59.106912", "MEAN_MOTION": 11.90305771, "ECCENTRICITY": 0.08593217, "INCLINATION": 99.7878, "RA_OF_ASC_NODE": 280.891, "ARG_OF_PERICENTER": 3.5817, "MEAN_ANOMALY": 357.0888, "EPHEMERIS_TYPE": 0, "CLASSIFICATION_TYPE": "U", "NORAD_CAT_ID": 29748, "ELEMENT_SET_NO": 999, "REV_AT_EPOCH": 78785, "BSTAR": 0.11928977, "MEAN_MOTION_DOT": 0.00024206, "MEAN_MOTION_DDOT": 0}, "tle": {"line1": "1 29748U 99025AN  25351.09165633  .00024206  00000+0  11929+0 0  9998", "line2": "2 29748  99.7878 280.8910 0859321   3.5817 357.0888 11.90305771787858"}}, "geometry": {"type": "Point", "coordinates": [103.04986512459278, 4.723677090874199]}}]}